NORAD_CAT_ID,OBJECT_NAME,OBJECT_TYPE,EPOCH,MEAN_MOTION,ECCENTRICITY,INCLINATION,RA_OF_ASC_NODE,ARG_OF_PERICENTER,MEAN_ANOMALY,BSTAR,MEAN_MOTION_DOT,MEAN_MOTION_DDOT,TLE_LINE0,TLE_LINE1,TLE_LINE2,SEMIMAJOR_AXIS,PERIOD,APOGEE,PERIGEE,DECAYED
54083.0,STARLINK-5178,PAYLOAD,2024-02-27 00:04:18,15.088469,0.0001643,53.2163,63.7486,91.6267,268.4914,-4.2051e-05,-9.57e-06,0.0,0 STARLINK-5178,1 54083U 22136AJ  24058.00299590 -.00000957  00000-0 -42051-4 0  9996,2 54083  53.2163  63.7486 0001643  91.6267 268.4914 15.08846900 75491,6917.859,95.437,540.861,538.588,0.0
54083.0,STARLINK-5178,PAYLOAD,2024-02-27 09:36:37,15.08849004,0.0001567,53.2174,61.9613,86.5437,273.5735,5.558e-06,-2e-06,0.0,0 STARLINK-5178,1 54083U 22136AJ  24058.40043634 -.00000200  00000-0  55580-5 0  9998,2 54083  53.2174  61.9613 0001567  86.5437 273.5735 15.08849004 75072,6917.853,95.437,540.802,538.634,0.0
54083.0,STARLINK-5178,PAYLOAD,2024-02-27 17:33:33,15.08845079,0.0001548,53.2175,60.4745,87.0208,273.0962,3.9537e-06,-2.25e-06,0.0,0 STARLINK-5178,1 54083U 22136AJ  24058.73163749 -.00000225  00000-0  39537-5 0  9995,2 54083  53.2175  60.4745 0001548  87.0208 273.0962 15.08845079 75125,6917.865,95.437,540.801,538.659,0.0
54083.0,STARLINK-5178,PAYLOAD,2024-02-28 09:27:24,15.08852415,0.0001509,53.217,57.5011,95.2802,264.8362,9.0723e-05,1.157e-05,0.0,0 STARLINK-5178,1 54083U 22136AJ  24059.39402870  .00001157  00000-0  90723-4 0  9996,2 54083  53.2170  57.5011 0001509  95.2802 264.8362 15.08852415 75709,6917.842,95.437,540.751,538.664,0.0
54083.0,STARLINK-5178,PAYLOAD,2024-02-28 17:24:20,15.08846611,0.0001423,53.2165,56.0156,91.4555,268.6601,4.6757e-05,4.56e-06,0.0,0 STARLINK-5178,1 54083U 22136AJ  24059.72523189  .00000456  00000-0  46757-4 0  9999,2 54083  53.2165  56.0156 0001423  91.4555 268.6601 15.08846611 75759,6917.86,95.437,540.71,538.741,0.0
54083.0,STARLINK-5178,PAYLOAD,2024-02-29 06:07:25,15.08839369,0.0001687,53.2179,53.6324,109.6524,250.465,8.2375e-05,1.023e-05,0.0,0 STARLINK-5178,1 54083U 22136AJ  24060.25515660  .00001023  00000-0  82375-4 0  9991,2 54083  53.2179  53.6324 0001687 109.6524 250.4650 15.08839369 75838,6917.882,95.438,540.914,538.58,0.0
54083.0,STARLINK-5178,PAYLOAD,2024-02-29 09:18:11,15.08839836,0.0001682,53.218,53.0377,109.4533,250.6641,8.5839e-05,1.078e-05,0.0,0 STARLINK-5178,1 54083U 22136AJ  24060.38763631  .00001078  00000-0  85839-4 0  9996,2 54083  53.2180  53.0377 0001682 109.4533 250.6641 15.08839836 75375,6917.881,95.438,540.909,538.582,0.0
54083.0,STARLINK-5178,PAYLOAD,2024-03-01 09:08:59,15.08842939,0.000159,53.2179,48.5779,98.3543,261.763,-4.1768e-05,-9.53e-06,0.0,0 STARLINK-5178,1 54083U 22136AJ  24061.38123881 -.00000953  00000-0 -41768-4 0  9990,2 54083  53.2179  48.5779 0001590  98.3543 261.7630 15.08842939 75529,6917.871,95.437,540.836,538.636,0.0
54083.0,STARLINK-5178,PAYLOAD,2024-03-01 15:30:31,15.088407,0.0001647,53.2179,47.3885,99.2731,260.8448,-2.2945e-05,-6.53e-06,0.0,0 STARLINK-5178,1 54083U 22136AJ  24061.64619955 -.00000653  00000-0 -22945-4 0  9994,2 54083  53.2179  47.3885 0001647  99.2731 260.8448 15.08840700 75561,6917.878,95.438,540.883,538.604,0.0
54083.0,STARLINK-5178,PAYLOAD,2024-03-02 02:38:12,15.08861426,0.0001726,53.2175,45.306,99.3647,260.7541,-0.00026214,-4.46e-05,0.0,0 STARLINK-5178,1 54083U 22136AJ  24062.10987162 -.00004460  00000-0 -26214-3 0  9996,2 54083  53.2175  45.3060 0001726  99.3647 260.7541 15.08861426 76118,6917.815,95.436,540.874,538.486,0.0
54083.0,STARLINK-5178,PAYLOAD,2024-03-02 05:48:59,15.08841267,0.0001628,53.2177,44.7114,101.037,259.0805,8.498e-05,1.065e-05,0.0,0 STARLINK-5178,1 54083U 22136AJ  24062.24235736  .00001065  00000-0  84980-4 0  9995,2 54083  53.2177  44.7114 0001628 101.0370 259.0805 15.08841267 76135,6917.877,95.437,540.868,538.615,0.0
54083.0,STARLINK-5178,PAYLOAD,2024-03-03 05:39:47,15.08839576,0.0001492,53.2176,40.256,97.3303,262.7859,3.0826e-05,2.03e-06,0.0,0 STARLINK-5178,1 54083U 22136AJ  24063.23596324  .00000203  00000-0  30826-4 0  9991,2 54083  53.2176  40.2560 0001492  97.3303 262.7859 15.08839576 76288,6917.882,95.438,540.779,538.715,0.0
54083.0,STARLINK-5178,PAYLOAD,2024-03-03 07:15:10,15.08841619,0.0001703,53.2184,39.9579,111.8159,248.3015,4.1266e-05,3.69e-06,0.0,0 STARLINK-5178,1 54083U 22136AJ  24063.30220116  .00000369  00000-0  41266-4 0  9995,2 54083  53.2184  39.9579 0001703 111.8159 248.3015 15.08841619 75811,6917.875,95.437,540.919,538.562,0.0
54083.0,STARLINK-5178,PAYLOAD,2024-03-04 05:30:33,15.08847449,0.000159,53.2181,35.795,85.5169,274.6004,5.3219e-05,5.59e-06,0.0,0 STARLINK-5178,1 54083U 22136AJ  24064.22955935  .00000559  00000-0  53219-4 0  9993,2 54083  53.2181  35.7950 0001590  85.5169 274.6004 15.08847449 75959,6917.858,95.437,540.823,538.623,0.0
54083.0,STARLINK-5178,PAYLOAD,2024-03-04 15:02:52,15.08841967,0.0001684,53.2185,34.0074,86.6312,273.4872,8.4297e-05,1.054e-05,0.0,0 STARLINK-5178,1 54083U 22136AJ  24064.62700146  .00001054  00000-0  84297-4 0  9990,2 54083  53.2185  34.0074 0001684  86.6312 273.4872 15.08841967 76497,6917.874,95.437,540.904,538.574,0.0
54083.0,STARLINK-5178,PAYLOAD,2024-03-05 03:45:59,15.08828487,0.0001443,53.218,31.6298,79.4447,280.6708,-6.5991e-05,-1.338e-05,0.0,0 STARLINK-5178,1 54083U 22136AJ  24065.15693664 -.00001338  00000-0 -65991-4 0  9992,2 54083  53.2180  31.6298 0001443  79.4447 280.6708 15.08828487 76574,6917.916,95.438,540.779,538.782,0.0
54083.0,STARLINK-5178,PAYLOAD,2024-03-05 05:21:22,15.08830747,0.0001455,53.2183,31.3327,79.7169,280.3987,-4.3514e-05,-9.8e-06,0.0,0 STARLINK-5178,1 54083U 22136AJ  24065.22317510 -.00000980  00000-0 -43514-4 0  9992,2 54083  53.2183  31.3327 0001455  79.7169 280.3987 15.08830747 76101,6917.909,95.438,540.78,538.767,0.0
54083.0,STARLINK-5178,PAYLOAD,2024-03-05 21:15:13,15.08839023,0.0001428,53.219,28.359,87.0355,273.08,7.9907e-05,9.84e-06,0.0,0 STARLINK-5178,1 54083U 22136AJ  24065.88556993  .00000984  00000-0  79907-4 0  9991,2 54083  53.2190  28.3590 0001428  87.0355 273.0800 15.08839023 76688,6917.883,95.438,540.736,538.761,0.0
54083.0,STARLINK-5178,PAYLOAD,2024-03-06 03:36:45,15.08840501,0.0001118,53.218,27.169,135.7099,224.3983,-1.4012e-05,-5.11e-06,0.0,0 STARLINK-5178,1 54083U 22136AJ  24066.15052604 -.00000511  00000-0 -14012-4 0  9996,2 54083  53.2180  27.1690 0001118 135.7099 224.3983 15.08840501 76243,6917.879,95.438,540.517,538.97,0.0
54083.0,STARLINK-5178,PAYLOAD,2024-03-07 03:27:33,15.08844701,0.0001229,53.2184,22.7092,93.1538,266.9594,0.00041049,6.252e-05,0.0,0 STARLINK-5178,1 54083U 22136AJ  24067.14413741  .00006252  00000-0  41049-3 0  9994,2 54083  53.2184  22.7092 0001229  93.1538 266.9594 15.08844701 76877,6917.866,95.437,540.581,538.881,0.0
54083.0,STARLINK-5178,PAYLOAD,2024-03-07 14:35:14,15.0885731,0.0001256,53.2179,20.6261,99.292,260.8214,0.00042567,6.496e-05,0.0,0 STARLINK-5178,1 54083U 22136AJ  24067.60780919  .00006496  00000-0  42567-3 0  9995,2 54083  53.2179  20.6261 0001256  99.2920 260.8214 15.08857310 76465,6917.827,95.436,540.561,538.824,0.0
54083.0,STARLINK-5178,PAYLOAD,2024-03-08 06:29:05,15.08853475,0.0001623,53.2191,17.6506,123.7533,236.3614,0.00020123,2.917e-05,0.0,0 STARLINK-5178,1 54083U 22136AJ  24068.27020477  .00002917  00000-0  20123-3 0  9993,2 54083  53.2191  17.6506 0001623 123.7533 236.3614 15.08853475 77043,6917.839,95.437,540.827,538.581,0.0
54083.0,STARLINK-5178,PAYLOAD,2024-03-08 17:36:47,15.08856258,0.0001603,53.2184,15.569,115.0789,245.037,7.2516e-05,8.67e-06,0.0,0 STARLINK-5178,1 54083U 22136AJ  24068.73388273  .00000867  00000-0  72516-4 0  9991,2 54083  53.2184  15.5690 0001603 115.0789 245.0370 15.08856258 76633,6917.831,95.437,540.805,538.587,0.0
54083.0,STARLINK-5178,PAYLOAD,2024-03-09 03:09:06,15.08840269,0.0001446,53.2185,13.7864,96.3083,263.8074,-0.00015685,-2.783e-05,0.0,0 STARLINK-5178,1 54083U 22136AJ  24069.13132965 -.00002783  00000-0 -15685-3 0  9995,2 54083  53.2185  13.7864 0001446  96.3083 263.8074 15.08840269 77174,6917.88,95.438,540.745,538.744,0.0
54083.0,STARLINK-5178,PAYLOAD,2024-03-09 12:41:24,15.08854751,0.0001388,53.2194,12.0054,93.8974,266.2177,2.9943e-05,1.89e-06,0.0,0 STARLINK-5178,1 54083U 22136AJ  24069.52876082  .00000189  00000-0  29943-4 0  9992,2 54083  53.2194  12.0054 0001388  93.8974 266.2177 15.08854751 77232,6917.835,95.437,540.66,538.74,0.0
54083.0,STARLINK-5178,PAYLOAD,2024-03-09 20:38:21,15.08828308,0.0001043,53.2185,10.5143,98.3484,261.7627,-0.00020688,-3.578e-05,0.0,0 STARLINK-5178,1 54083U 22136AJ  24069.85997249 -.00003578  00000-0 -20688-3 0  9990,2 54083  53.2185  10.5143 0001043  98.3484 261.7627 15.08828308 77282,6917.916,95.438,540.503,539.06,0.0
54083.0,STARLINK-5178,PAYLOAD,2024-03-10 02:59:53,15.08841577,0.0001399,53.2187,9.3319,87.5005,272.6148,7.5678e-05,9.17e-06,0.0,0 STARLINK-5178,1 54083U 22136AJ  24070.12492811  .00000917  00000-0  75678-4 0  9999,2 54083  53.2187   9.3319 0001399  87.5005 272.6148 15.08841577 77325,6917.876,95.437,540.708,538.773,0.0
54083.0,STARLINK-5178,PAYLOAD,2024-03-10 12:32:11,15.08854787,0.0001402,53.2186,7.5447,87.0826,273.0327,0.000253,3.742e-05,0.0,0 STARLINK-5178,1 54083U 22136AJ  24070.52236005  .00003742  00000-0  25300-3 0  9999,2 54083  53.2186   7.5447 0001402  87.0826 273.0327 15.08854787 77384,6917.835,95.437,540.67,538.73,0.0
54083.0,STARLINK-5178,PAYLOAD,2024-03-11 02:50:40,15.08840633,0.0001479,53.2185,4.8702,90.4589,269.6572,0.00017028,2.423e-05,0.0,0 STARLINK-5178,1 54083U 22136AJ  24071.11852783  .00002423  00000-0  17028-3 0  9995,2 54083  53.2185   4.8702 0001479  90.4589 269.6572 15.08840633 77473,6917.878,95.438,540.767,538.72,0.0
54083.0,STARLINK-5178,PAYLOAD,2024-03-11 12:22:59,15.08847443,0.000146,53.2175,3.0848,90.1643,269.9517,0.00064406,9.979e-05,0.0,0 STARLINK-5178,1 54083U 22136AJ  24071.51596718  .00009979  00000-0  64406-3 0  9997,2 54083  53.2175   3.0848 0001460  90.1643 269.9517 15.08847443 77054,6917.858,95.437,540.733,538.713,0.0
